#dP2024 12 30  0  0  0.00000000      96 __u+U IGS20 EXT  IAC
## 2347  86400.00000000   900.00000000 60674 0.0000000000000
+   52   G02G03G04G05G06G07G08G09G10G11G12G13G14G15G16G17G18
+        G19G20G21G22G23G24G25G26G27G28G29G30G31G32R01R02R03
+        R04R05R07R08R09R11R12R14R15R16R17R18R19R20R21R22R24
+        R26  0  0  0  0  0  0  0  0  0  0  0  0  0  0  0  0
+          0  0  0  0  0  0  0  0  0  0  0  0  0  0  0  0  0
++         7  7  7  7  6  6  7  6  8  6  7  8  8  6  6  8  7
++         7  7  9  7  7  6  6  7  7  7  8  6  8  8 11  6  7
++         9  9  9  7  8  9  8  7  7 10  9  8  8  9  9  8  7
++         7  0  0  0  0  0  0  0  0  0  0  0  0  0  0  0  0
++         0  0  0  0  0  0  0  0  0  0  0  0  0  0  0  0  0
%c M  cc GPS ccc cccc cccc cccc cccc ccccc ccccc ccccc ccccc
%c cc cc ccc ccc cccc cccc cccc cccc ccccc ccccc ccccc ccccc
%f  0.0000000  0.000000000  0.00000000000  0.000000000000000
%f  0.0000000  0.000000000  0.00000000000  0.000000000000000
%i    0    0    0    0      0      0      0      0         0
%i    0    0    0    0      0      0      0      0         0
/* IAC                                ULTRA-RAPID PREDICTION
/* S/V CLOCKS ARE ALIGNED TO GNSS TIME                      
/* G:C1WC2W R:C1PC2P E:C1XC5X C:C2IC6I J:C1CC2S             
/* PCV:IGS20_2317 OL/AL:FES2004  NONE     YN ORB:CoN CLK:CoN
*  2024 12 30  0 30  0.00000000
PG02  18510.951498   6368.030823  18593.083983   -280.255615
PG03  18657.083480  -6256.414953  17618.171261    635.539834
PG04  26295.015772    218.625243  -4271.528691    503.861277
PG05 -12130.125351  -8859.223735 -22078.424262   -197.497289
PG06  -4376.517435 -24510.042295   9147.352281    -81.258620
PG07  11598.448972 -10462.821372 -20893.646622    -14.248193
PG08  24980.197872   6443.950874  -7381.510330    449.839965
PG09  22554.393261  -7201.734908 -12201.865026    507.876081
PG10  -8541.219117  23150.913988   9591.632048   -254.976528
PG11 -12190.525549 -23388.566562  -3352.295951   -752.613029
PG12 -18379.009950   1914.658755  18774.126828   -561.393693
PG13 -18863.711121 -13642.039220 -13240.356314    691.745503
PG14  11704.835735 -23023.991524   5673.840888    570.040610
PG15 -25461.887344  -3600.705075  -7458.660433    245.522575
PG16   7617.267869  14217.642046 -21383.305307    -90.744821
PG17   8577.011179 -13756.104874  21484.285165    497.569745
PG18  -9815.226216  12928.230735 -20944.737491   -659.406728
PG19  -3537.800897 -15580.623939  21147.120823    579.938535
PG20  -4571.815147 -19517.984169 -17404.723323    367.485158
PG21  19204.245088  13228.233502  14060.002238     99.111831
PG22   6544.730142 -22376.141709  13394.434511    -89.413148
PG23 -16795.175219  19875.481747  -4617.565759    393.579335
PG24 -19070.551779  -8692.403489  16073.774210   -469.099227
PG25 -18952.400938  14960.395193  10398.658558    497.484566
PG26    372.655446  21834.964307 -15031.085325    -27.789221
PG27  17114.959420  12785.624483 -16360.624046    -33.683783
PG28   3699.538818  23975.564754  10798.263097   -521.881146
PG29 -22907.210142   5080.243349 -12608.620989   -551.684344
PG30   3058.091686 -20870.168071 -15828.409818   -250.538851
PG31   9909.791891  24387.471350   1125.164333   -218.983044
PG32  -2961.104391  15032.650963  21914.890656   -550.762464
PR01 -16437.796852  12473.257563  15003.224081    109.473917
PR02    402.184222  10944.333274  23079.002464    -38.834388
PR03  17834.875860   3752.833625  17926.341855    114.099974
PR04  24817.461522  -4987.167742   3265.502057    270.488577
PR05  18784.550688 -11152.303769 -13182.603634    142.964399
PR07 -18025.719243  -3571.923629 -17620.817450     97.887154
PR08 -24736.637797   5404.816352  -2841.857778     -6.202652
PR09    976.655015 -23978.379588   8538.364083    229.082267
PR11 -11906.452419   4213.896222  22169.300381      2.512652
PR12 -10081.729369  21493.154718   9329.499953     49.004108
PR14   7393.749814  12608.658861 -20905.468146     27.508171
PR15  12245.402515  -6044.985038 -21531.960318     72.688096
PR16  10000.947217 -21443.627581  -9484.217786     32.047515
PR17  18999.883055  16614.007908   3566.592544    152.893825
PR18  17232.992708   6024.907369  17861.887917    179.330217
PR19   8508.701274  -6149.877173  23253.750455   -303.702162
PR20  -8679.564304 -19114.741269  14475.270127   -123.941794
PR21 -18573.491447 -17347.677343  -2324.303165   -163.776019
PR22 -16805.023767  -5099.593588 -18463.215820    -53.351788
PR24   9814.205981  18988.329685 -13886.820393    -86.074068
PR26 -24629.759674   4582.652530  -4824.706301   -132.306091
*  2024 12 30  0 45  0.00000000
PG02  19438.584963   8068.068715  16897.775571   -280.247508
PG03  17571.257521  -4413.680006  19215.540924    635.546968
PG04  26601.010494    470.957728  -1437.147343    503.866700
PG05 -10864.931301 -10978.247105 -21775.313523   -197.498324
PG06  -3713.632560 -23515.459543  11721.499488    -81.283606
PG07  12795.419541  -8231.647566 -21223.113219    -14.247519
PG08  24011.794772   6657.103710  -9955.451936    449.847549
PG09  23788.890978  -6954.688948  -9738.959506    507.890108
PG10  -9200.644113  23817.707313   6874.072771   -254.990799
PG11 -12067.943988 -23690.447810   -501.294159   -752.612718
PG12 -17105.193765     23.263025  20019.448185   -561.395747
PG13 -17272.577744 -13476.269023 -15418.429592    691.746698
PG14  12239.999683 -23252.245106   2894.697101    570.047286
PG15 -24560.637497  -3971.399650 -10019.229510    245.526646
PG16   6110.831876  16003.840119 -20534.865725    -90.736212
PG17  10875.645394 -13440.344283  20627.319278    497.554643
PG18 -10937.400690  10758.077127 -21623.952300   -659.405916
PG19  -1093.015054 -15222.474709  21627.945807    579.942725
PG20  -3685.136743 -21203.851196 -15566.233592    367.484876
PG21  19840.501683  14468.251023  11799.684807     99.113574
PG22   7514.156011 -23310.817050  11040.837043    -89.415147
PG23 -16604.732941  19175.051391  -7418.558100    393.586181
PG24 -19857.200431 -10322.444637  14130.570436   -469.096033
PG25 -18448.844338  13639.573403  12790.665203    497.484119
PG26   -621.797227  23109.768148 -12909.012835    -27.802440
PG27  15207.163101  12834.602613 -18106.367624    -33.683382
PG28   2851.299892  22873.746337  13179.997047   -521.890309
PG29 -24164.387703   4727.712021 -10163.072012   -551.681371
PG30   4146.650865 -19233.192710 -17567.979908   -250.531409
PG31   9496.565298  24229.346403   3968.395571   -218.982331
PG32  -5394.797380  14890.334440  21522.641772   -550.756652
PR01 -17997.261066  13140.996453  12421.835949    109.475038
PR02  -2278.517045  11775.220156  22547.971092    -38.834246
PR03  15593.811012   4344.147225  19785.181851    114.100446
PR04  24195.911741  -4992.408007   6422.331504    270.489813
PR05  20136.537557 -11720.627639 -10406.019415    142.964860
PR07 -15796.525188  -4162.246246 -19527.833449     97.887784
PR08 -24158.394805   5396.019442  -6007.020000     -6.202666
PR09   1057.580956 -24844.021448   5504.180722    229.084182
PR11 -11296.719781   1506.741982  22826.611306      2.510736
PR12  -9685.104625  20224.958231  12161.474964     49.004450
PR14   6938.303882  15052.864440 -19391.637406     27.508168
PR15  11627.813419  -3401.031906 -22435.293449     72.687694
PR16   9587.095547 -20155.235158 -12316.636487     32.047694
PR17  19300.046513  16644.094660    345.529094    152.896773
PR18  18821.050170   7348.758073  15624.697178    179.331881
PR19  10520.592698  -4132.797877  22873.095384   -303.703386
PR20  -7440.980845 -17618.482163  16871.152837   -123.941827
PR21 -18774.660238 -17264.247447    907.873706   -163.779062
PR22 -18395.933712  -6557.734982 -16370.389447    -53.353376
PR24   8520.249812  17636.364587 -16309.520180    -86.075496
PR26 -23827.505403   4501.027126  -7920.990160   -132.305834
EOF
